{"type":"FeatureCollection","features":[{"type":"Feature","geometry":{"type":"Polygon","coordinates":[[[-70.598377196088251,-33.420422775815013],[-70.598617642750455,-33.420256926507129],[-70.59922749462379,-33.419836273952342],[-70.599264800759229,-33.419808537138522],[-70.599473173972527,-33.41965361105354],[-70.599834616516986,-33.419384877256157],[-70.600322125035163,-33.4190224066339],[-70.600762816953974,-33.418694742998113],[-70.600975479622775,-33.418536620792537],[-70.601458241442984,-33.418177669188196],[-70.601879421055514,-33.417908864840328],[-70.602338670371466,-33.417654517385913],[-70.602892722492626,-33.417456468380564],[-70.603363711891035,-33.417383569221315],[-70.603966257766174,-33.417347145112174],[-70.604414487448551,-33.417274536036608],[-70.604828405978651,-33.417192825729245],[-70.604943712830206,-33.417140726042362],[-70.606761655928551,-33.416179943698552],[-70.606905339661623,-33.416164316762718],[-70.607448021806221,-33.416105291144035],[-70.607770892489,-33.416074292930517],[-70.607266485762025,-33.414935256686007],[-70.606838184305914,-33.413351038583158],[-70.606581025386177,-33.412399822135072],[-70.606468781789729,-33.412105414202856],[-70.606461361705485,-33.412085951039543],[-70.605460087811707,-33.409283302976988],[-70.605459414075241,-33.409283082513333],[-70.605459733875477,-33.409282462365496],[-70.605382668305566,-33.409078506224155],[-70.606086929522021,-33.409225345755679],[-70.606232819517416,-33.409255764509382],[-70.606241672414541,-33.409272932934755],[-70.608626771359127,-33.409242262228453],[-70.612953778216294,-33.409186504369863],[-70.613916993186422,-33.40905622134003],[-70.61394149024423,-33.409055628936073],[-70.614088172553693,-33.409134575351345],[-70.614924362149395,-33.409735133866114],[-70.615206551726232,-33.409993931749199],[-70.615879697996178,-33.41062345010841],[-70.616025898808672,-33.41070924585793],[-70.61606506625337,-33.410756070362488],[-70.616320959446895,-33.410882398316751],[-70.616983522664484,-33.411271210983287],[-70.617682006815329,-33.412115137534485],[-70.618168193911714,-33.412633740389147],[-70.619863038171729,-33.413888185770105],[-70.620856224533028,-33.414499245049512],[-70.621539883786738,-33.414937040526027],[-70.622185396980228,-33.415414769405814],[-70.623071089137966,-33.41618463230364],[-70.623944464494855,-33.416865170185787],[-70.62457750008906,-33.417817287725754],[-70.625072095416499,-33.418019591778901],[-70.625837661261201,-33.418638893734453],[-70.626695520018188,-33.419057143757932],[-70.628538552164116,-33.419853179360956],[-70.628997331661182,-33.419959044468328],[-70.629755730746538,-33.42013956309578],[-70.632184125792847,-33.421899058900038],[-70.632624128703839,-33.422831004448078],[-70.632477957535755,-33.424142898195157],[-70.632979998100282,-33.425195715914882],[-70.63363046909582,-33.426196468598299],[-70.635835777422784,-33.429686711428872],[-70.636006031525312,-33.429858336394986],[-70.636020012006085,-33.429952700930862],[-70.636036551787114,-33.430064334636619],[-70.636092637203561,-33.430241927931654],[-70.636105221702365,-33.430281777985762],[-70.63618120570068,-33.430451828168202],[-70.636197657446786,-33.430488647865481],[-70.636199188176036,-33.430485895741157],[-70.63619911631082,-33.430491912779949],[-70.636265451504656,-33.430640366924507],[-70.636234933039489,-33.43079295835831],[-70.636219673357772,-33.430892143133711],[-70.636192337623683,-33.431054216185075],[-70.636191587530419,-33.431058661087874],[-70.636006050389938,-33.432158653202237],[-70.635880905189396,-33.432855913274494],[-70.635879687073896,-33.43286269931334],[-70.635792427422132,-33.433348868286707],[-70.63558618501267,-33.434586356234078],[-70.63554828688747,-33.434813746684377],[-70.635380439371559,-33.435691149363137],[-70.635377503677233,-33.435828391886702],[-70.635375018038829,-33.435944636605143],[-70.635372715656757,-33.436052272991425],[-70.635366818216923,-33.436328016828938],[-70.635365182384788,-33.436404514105661],[-70.635326288926251,-33.436826653869375],[-70.635205497859886,-33.437103798565047],[-70.635184306602326,-33.437272126213045],[-70.63517741562579,-33.437326861526735],[-70.635079328579906,-33.437697348736712],[-70.635073766211676,-33.437718354896205],[-70.635059245843422,-33.437803893736245],[-70.634979768296972,-33.438272084482165],[-70.63496575368022,-33.438354634769567],[-70.634846381053705,-33.438655243029089],[-70.634716677801393,-33.439090128860776],[-70.634606182326507,-33.439453865747069],[-70.634597403091234,-33.439482767932965],[-70.634572947355935,-33.439563270619665],[-70.634540497512944,-33.439678948873762],[-70.634425736837073,-33.440088046727737],[-70.634412311515149,-33.440132515105809],[-70.634243919620204,-33.440690270406748],[-70.634206251463709,-33.440815038357691],[-70.634166306077958,-33.440947344137321],[-70.63414372063508,-33.441022149986637],[-70.634031317138536,-33.441394454937353],[-70.633892892143137,-33.44185294003988],[-70.633773415312049,-33.442263762947483],[-70.633727600334225,-33.442421293981731],[-70.633694826199402,-33.442533986559027],[-70.633688562246931,-33.442555526754184],[-70.633475692965632,-33.443287462944213],[-70.633220277675832,-33.444194553807748],[-70.633173028088521,-33.444362356489926],[-70.632991387839766,-33.444979334232478],[-70.632867255938848,-33.445400974292127],[-70.632708384389289,-33.44591582089631],[-70.632689610498161,-33.445976661916049],[-70.632245657694867,-33.447415326085441],[-70.632119980691655,-33.447858758520802],[-70.631898361819495,-33.448640701029085],[-70.631829630818785,-33.448870312993108],[-70.631716372126093,-33.449248674952742],[-70.631597343554319,-33.449646313119707],[-70.631545415541012,-33.449819784416562],[-70.631478786598052,-33.449805972144269],[-70.631133025943498,-33.449741129837342],[-70.631107057445277,-33.449736260160243],[-70.630171827691186,-33.44956086690506],[-70.629881378105324,-33.449506394899309],[-70.629649291165151,-33.449456180936352],[-70.629203975617571,-33.449365672207215],[-70.629204252298678,-33.449364742789705],[-70.628956273262801,-33.449313791206521],[-70.628318104695069,-33.449204963777341],[-70.62831581578773,-33.449204574020925],[-70.627972028731861,-33.449145946385201],[-70.627645528855325,-33.449086402031426],[-70.626758889873258,-33.448924696953341],[-70.626232433099332,-33.448779737693464],[-70.625682129647856,-33.448639757362606],[-70.625362634833905,-33.448558485828329],[-70.625183508969613,-33.448523244829218],[-70.625167315039988,-33.44852005929463],[-70.624866810611152,-33.448460937250637],[-70.624821748421553,-33.448452070964322],[-70.624476181803104,-33.448384082580688],[-70.624003885355961,-33.44829116221365],[-70.623977226053285,-33.448285917685332],[-70.623696092895216,-33.448230606143497],[-70.623227228910764,-33.44813836094832],[-70.622622317771487,-33.448018936520768],[-70.622251836378638,-33.447946459537128],[-70.621831833559128,-33.447863353220953],[-70.621824903056705,-33.447861981556827],[-70.621215849785656,-33.4477414654122],[-70.621175483988367,-33.447733477518327],[-70.620891570544501,-33.44767729690173],[-70.619846287286649,-33.447475119686352],[-70.618978392551298,-33.447291773650136],[-70.618762854375291,-33.447246239335982],[-70.618648410804724,-33.447654422289105],[-70.618434784243647,-33.44836778835657],[-70.617793879407557,-33.448249533527111],[-70.617091938539488,-33.448123649708634],[-70.616496813646904,-33.44801302488365],[-70.616167888319112,-33.447949071692797],[-70.616153176609714,-33.447946210689004],[-70.615947467799515,-33.447906214341288],[-70.614530326929795,-33.447681446381914],[-70.614444200053626,-33.447667785177117],[-70.614299486851252,-33.447644832609321],[-70.614296111880719,-33.447644296684558],[-70.614032980062646,-33.447602559753008],[-70.61373482562658,-33.44755526716736],[-70.61381112044198,-33.447147084497153],[-70.613876933714636,-33.446818008438363],[-70.613879784967352,-33.446803753452116],[-70.613644155071697,-33.446769799471582],[-70.613631711608392,-33.446768006541511],[-70.613531009566714,-33.446753495199985],[-70.61343158133613,-33.446739167496496],[-70.613390247154967,-33.446733211548498],[-70.613184516785211,-33.446703565223061],[-70.613153013766521,-33.446699025928375],[-70.611601848747981,-33.446475488608627],[-70.61128565254775,-33.446429919386411],[-70.611168457437472,-33.446414387093348],[-70.610782598683585,-33.446298382768354],[-70.610710725376038,-33.446276774543342],[-70.610331926481976,-33.446162890533728],[-70.609999709726964,-33.446066954560941],[-70.609446869433128,-33.445907305143976],[-70.609079418956057,-33.4457962779762],[-70.608752556160141,-33.445724200150927],[-70.608409215566979,-33.445674610632274],[-70.608065874973789,-33.445625019586167],[-70.607157928851535,-33.445529655684943],[-70.6070182444181,-33.445512596369774],[-70.606968518175549,-33.445506524155228],[-70.606719206938124,-33.445476076126731],[-70.60671324751452,-33.445475348300228],[-70.606158424638849,-33.445407588449193],[-70.60562226695815,-33.445334072635042],[-70.605599779431657,-33.445330988924205],[-70.605474914505464,-33.4453138681056],[-70.605435788383275,-33.445308502717225],[-70.605379534083539,-33.445297848395185],[-70.605379552948179,-33.445297726965599],[-70.604350161786016,-33.445159637418804],[-70.603306385002867,-33.445049777869905],[-70.603283629778417,-33.445047383001565],[-70.602900500106358,-33.445007055507276],[-70.602598787443455,-33.444976335210221],[-70.602545292768284,-33.444970888098027],[-70.602190085430209,-33.444934719924177],[-70.601912666805859,-33.444906436449671],[-70.601748400873007,-33.444890660273892],[-70.601424134208273,-33.444857308947732],[-70.60139645262278,-33.444854461334231],[-70.60109986844185,-33.444823955360022],[-70.600887009042012,-33.444803686998327],[-70.600884560234547,-33.444803453132572],[-70.599774892923648,-33.444697783981844],[-70.599768758328565,-33.444697199316764],[-70.599746517838767,-33.444695081030247],[-70.599629778174318,-33.44468396414775],[-70.599566616728396,-33.444677948842561],[-70.59951833138355,-33.44467335022582],[-70.599177160221785,-33.444640859323698],[-70.598154766935693,-33.444526420731648],[-70.59812424847054,-33.444797270681654],[-70.598032692176787,-33.444801085991493],[-70.597242813428934,-33.445249429454648],[-70.59607947627137,-33.445979867032598],[-70.595263097222627,-33.446422390099819],[-70.594446710089059,-33.446864907161725],[-70.593671961665521,-33.447289942503922],[-70.593622699851977,-33.447316967459805],[-70.592798682428381,-33.447769021654118],[-70.592635683120065,-33.447567349846416],[-70.592620824985275,-33.447548965734747],[-70.592607873973819,-33.447532942689428],[-70.592532658035083,-33.447439879746135],[-70.592260528691114,-33.447118223091643],[-70.592019526870061,-33.446836374715716],[-70.591722797162035,-33.446489347883741],[-70.591607291782822,-33.446309178633705],[-70.591388424450358,-33.445977879200733],[-70.591376119327592,-33.445958685977281],[-70.591246258870115,-33.445756125477935],[-70.591135369933127,-33.445583160253797],[-70.590990400710908,-33.445346643590327],[-70.590692834671358,-33.444877426633525],[-70.590387639240092,-33.444412023964766],[-70.590383487226859,-33.444405582133612],[-70.590212719287976,-33.4441406038842],[-70.590210815757885,-33.444137650557046],[-70.589837567553957,-33.443558480171063],[-70.589490076744198,-33.443020749737897],[-70.588594615407715,-33.441604353685172],[-70.58819008247572,-33.440974682154341],[-70.588142444816199,-33.44090007865703],[-70.587671397925604,-33.440162368320429],[-70.587151756669741,-33.439415418688583],[-70.586999967437848,-33.439197232114807],[-70.586427727127145,-33.438556350483893],[-70.586178629688732,-33.438274883586004],[-70.586166605738683,-33.438261295862496],[-70.586046234185531,-33.438125282078047],[-70.585374805494411,-33.437377589263441],[-70.58506307751442,-33.437023236623993],[-70.584970242019693,-33.436919333888788],[-70.584604189321198,-33.436511636417215],[-70.584215066987881,-33.436092011679122],[-70.583833574046281,-33.435657128812394],[-70.58345971139471,-33.435218429534423],[-70.583101106628249,-33.434810250288756],[-70.582599844004761,-33.434237024670509],[-70.582545761831383,-33.434175179117723],[-70.582542778526346,-33.434171766658466],[-70.582383897993608,-33.433990075500169],[-70.582265051779828,-33.433807440133648],[-70.582262290358642,-33.433803197031452],[-70.582230286080019,-33.433754014514008],[-70.582895034898698,-33.433326357233746],[-70.583623178725276,-33.432677580151854],[-70.584363915135512,-33.431772662157456],[-70.584396064941217,-33.431726762849031],[-70.584436933795089,-33.431687084386077],[-70.585045538806796,-33.431096201727691],[-70.585600787483912,-33.430557112084244],[-70.58574027249135,-33.430435609293895],[-70.585936692721475,-33.430264510255959],[-70.586573565020274,-33.42970973322192],[-70.587363943231409,-33.42902122468243],[-70.587464707256828,-33.428933446057869],[-70.587857056338635,-33.428608277375055],[-70.588821553204681,-33.427808909337344],[-70.589637442671602,-33.427174075576701],[-70.590433236825604,-33.426554863741323],[-70.590895663482726,-33.426195040361847],[-70.592361399616053,-33.425054270777352],[-70.592922983212546,-33.424617182335929],[-70.593180368507774,-33.424417153388809],[-70.594053951375486,-33.423738229680858],[-70.594441548369431,-33.423436994689069],[-70.595253124126359,-33.422794254229252],[-70.59533173390021,-33.422731997901565],[-70.596591495322073,-33.421734280083101],[-70.596836350017369,-33.421554450061436],[-70.59690749568955,-33.421502198538768],[-70.597304240228056,-33.421210813810823],[-70.597837190923187,-33.420819388435383],[-70.598377196088251,-33.420422775815013]]]},"properties":{"COM":"Providencia","NOM":"Límite urbano de Providencia"}}]}